[
  {
    "name": "ONEWEB-0572",
    "noradId": "55151",
    "line1": "1 55151U 23004M   26199.95690636 -.00000265  00000+0 -71552-3 0  9994",
    "line2": "2 55151  87.9149 359.5451 0002008  91.8918 268.2444 13.17648845171663"
  },
  {
    "name": "ONEWEB-0573",
    "noradId": "55152",
    "line1": "1 55152U 23004N   26199.90722053 -.00000021  00000+0 -84821-4 0  9993",
    "line2": "2 55152  87.9192 329.1605 0002742  93.5124 266.6322 13.18684449173872"
  },
  {
    "name": "ONEWEB-0588",
    "noradId": "55153",
    "line1": "1 55153U 23004P   26199.90048386  .00000009  00000+0 -92519-5 0  9993",
    "line2": "2 55153  87.9191 329.1611 0002069  86.6388 273.4981 13.18686725173872"
  },
  {
    "name": "ONEWEB-0598",
    "noradId": "55154",
    "line1": "1 55154U 23004Q   26199.97600826 -.00000533  00000+0 -15407-2 0  9995",
    "line2": "2 55154  87.8887  14.7381 0002541  97.0894 263.0523 13.11417154170064"
  },
  {
    "name": "ONEWEB-0599",
    "noradId": "55155",
    "line1": "1 55155U 23004R   26199.99402502 -.00000183  00000+0 -50535-3 0  9992",
    "line2": "2 55155  87.9151 359.5365 0001941 100.1545 259.9805 13.17648827171678"
  },
  {
    "name": "ONEWEB-0614",
    "noradId": "55156",
    "line1": "1 55156U 23004S   26200.19981111 -.00000494  00000+0 -14309-2 0  9999",
    "line2": "2 55156  87.8883  14.7014 0001722  84.8112 275.3212 13.11415974170038"
  },
  {
    "name": "ONEWEB-0616",
    "noradId": "55157",
    "line1": "1 55157U 23004T   26199.96027421 -.00000234  00000+0 -63577-3 0  9991",
    "line2": "2 55157  87.9150 359.5474 0001957 121.8908 238.2415 13.17649158171888"
  },
  {
    "name": "ONEWEB-0617",
    "noradId": "55158",
    "line1": "1 55158U 23004U   26200.03534452 -.00000134  00000+0 -41529-3 0  9992",
    "line2": "2 55158  87.8889  14.7275 0001850  77.9096 282.2239 13.11416501170034"
  },
  {
    "name": "ONEWEB-0618",
    "noradId": "55159",
    "line1": "1 55159U 23004V   26199.93190494  .00006118  00000+0  34017-3 0  9993",
    "line2": "2 55159  86.9116 164.7460 0012826 161.4590 198.7120 15.13428096187060"
  },
  {
    "name": "ONEWEB-0619",
    "noradId": "55160",
    "line1": "1 55160U 23004W   26200.14420908 -.00000208  00000+0 -56820-3 0  9999",
    "line2": "2 55160  87.9160 359.4942 0001433  92.9491 267.1804 13.17649120171800"
  },
  {
    "name": "ONEWEB-0620",
    "noradId": "55161",
    "line1": "1 55161U 23004X   26200.18286133  .00000117  00000+0  29415-3 0  9991",
    "line2": "2 55161  87.8881  14.7045 0002113  89.9962 270.1408 13.11415503170027"
  },
  {
    "name": "ONEWEB-0621",
    "noradId": "55162",
    "line1": "1 55162U 23004Y   26199.98109753 -.00000500  00000+0 -14469-2 0  9999",
    "line2": "2 55162  87.8896  14.7361 0001706  84.8265 275.3058 13.11417430169973"
  },
  {
    "name": "ONEWEB-0622",
    "noradId": "55163",
    "line1": "1 55163U 23004Z   26199.98618558 -.00000344  00000+0 -10074-2 0  9992",
    "line2": "2 55163  87.8894  14.7389 0002057  70.7821 289.3529 13.11418329169969"
  },
  {
    "name": "ONEWEB-0623",
    "noradId": "55164",
    "line1": "1 55164U 23004AA  26200.13915527  .00000058  00000+0  11746-3 0  9997",
    "line2": "2 55164  87.9150 359.5212 0001516  69.1529 290.9765 13.17649126171798"
  },
  {
    "name": "ONEWEB-0624",
    "noradId": "55165",
    "line1": "1 55165U 23004AB  26199.89782398 -.00000344  00000+0 -98392-3 0  9998",
    "line2": "2 55165  87.8974 344.2750 0001753  92.7837 267.3492 13.12929475172235"
  },
  {
    "name": "ONEWEB-0625",
    "noradId": "55166",
    "line1": "1 55166U 23004AC  26199.97715306 -.00000016  00000+0 -73164-4 0  9990",
    "line2": "2 55166  87.9150 359.5503 0001775  98.1805 261.9528 13.17648072171760"
  },
  {
    "name": "ONEWEB-0626",
    "noradId": "55167",
    "line1": "1 55167U 23004AD  26200.19484975 -.00000151  00000+0 -42120-3 0  9990",
    "line2": "2 55167  87.9150 359.5063 0002219  97.5191 262.6193 13.17648980171794"
  },
  {
    "name": "ONEWEB-0627",
    "noradId": "55168",
    "line1": "1 55168U 23004AE  26199.95522574  .00000023  00000+0  26149-4 0  9990",
    "line2": "2 55168  87.9147 359.5547 0001578  80.0653 280.0657 13.17648751171767"
  },
  {
    "name": "ONEWEB-0628",
    "noradId": "55169",
    "line1": "1 55169U 23004AF  26200.11965653 -.00002746  00000+0 -76687-2 0  9997",
    "line2": "2 55169  87.8973 344.3055 0001108 108.0768 252.0482 13.12450993172228"
  },
  {
    "name": "ONEWEB-0629",
    "noradId": "55170",
    "line1": "1 55170U 23004AG  26200.00668872  .00000011  00000+0 -43193-5 0  9991",
    "line2": "2 55170  87.9151 359.5395 0001540  93.2302 266.9006 13.17650256171777"
  },
  {
    "name": "ONEWEB-0631",
    "noradId": "55171",
    "line1": "1 55171U 23004AH  26200.12137003 -.00000039  00000+0 -13164-3 0  9996",
    "line2": "2 55171  87.9204 329.0861 0002266  91.1015 269.0377 13.18686211173881"
  },
  {
    "name": "ONEWEB-0709",
    "noradId": "55172",
    "line1": "1 55172U 23004AJ  26200.24899715  .00000528  00000+0  14545-2 0  9999",
    "line2": "2 55172  87.8884  14.6937 0002713  96.3503 263.7934 13.11416417170072"
  },
  {
    "name": "ONEWEB-0710",
    "noradId": "55173",
    "line1": "1 55173U 23004AK  26199.94509851  .00000102  00000+0  22987-3 0  9991",
    "line2": "2 55173  87.9147 359.5477 0001862  88.3779 271.7566 13.17649168171760"
  },
  {
    "name": "ONEWEB-0711",
    "noradId": "55174",
    "line1": "1 55174U 23004AL  26200.22016366 -.00000280  00000+0 -82564-3 0  9996",
    "line2": "2 55174  87.8886  14.6879 0001749  68.3071 291.8243 13.11418465170034"
  },
  {
    "name": "ONEWEB-0713",
    "noradId": "55175",
    "line1": "1 55175U 23004AM  26200.00993749  .00000532  00000+0  14649-2 0  9998",
    "line2": "2 55175  87.8888  14.7319 0001809  77.5371 282.5960 13.11417200169991"
  },
  {
    "name": "ONEWEB-0715",
    "noradId": "55176",
    "line1": "1 55176U 23004AN  26200.00485001  .00000390  00000+0  10636-2 0  9990",
    "line2": "2 55176  87.8887  14.7331 0002512  88.5633 271.5783 13.11418058170030"
  },
  {
    "name": "ONEWEB-0716",
    "noradId": "55177",
    "line1": "1 55177U 23004AP  26200.16615796 -.00000074  00000+0 -22300-3 0  9997",
    "line2": "2 55177  87.9147 359.5067 0001828 100.8977 259.2361 13.17647907171797"
  },
  {
    "name": "ONEWEB-0717",
    "noradId": "55178",
    "line1": "1 55178U 23004AQ  26199.99740449 -.00000121  00000+0 -34372-3 0  9995",
    "line2": "2 55178  87.9162 359.5308 0001965  76.7242 283.4108 13.17649102171822"
  },
  {
    "name": "ONEWEB-0719",
    "noradId": "55179",
    "line1": "1 55179U 23004AR  26200.15939655 -.00000222  00000+0 -60618-3 0  9990",
    "line2": "2 55179  87.9159 359.4786 0001709  97.6332 262.4994 13.17648638171795"
  },
  {
    "name": "ONEWEB-0530",
    "noradId": "55796",
    "line1": "1 55796U 23029A   26200.21080032 -.00000120  00000+0 -32730-3 0  9996",
    "line2": "2 55796  87.9174 268.0850 0001744  88.0051 272.1282 13.20771488165374"
  }
]