OBJECT_NAME,OBJECT_ID,EPOCH,MEAN_MOTION,ECCENTRICITY,INCLINATION,RA_OF_ASC_NODE,ARG_OF_PERICENTER,MEAN_ANOMALY,EPHEMERIS_TYPE,CLASSIFICATION_TYPE,NORAD_CAT_ID,ELEMENT_SET_NO,REV_AT_EPOCH,BSTAR,MEAN_MOTION_DOT,MEAN_MOTION_DDOT
ONEWEB-0572,2023-004M,2026-07-18T22:57:56.709504,13.17648845,.00020084,87.9149,359.5451,91.8918,268.2444,0,U,55151,999,17166,-.71552235E-3,-.265E-5,0
ONEWEB-0573,2023-004N,2026-07-18T21:46:23.853792,13.18684449,.00027425,87.9192,329.1605,93.5124,266.6322,0,U,55152,999,17387,-.84821323E-4,-.21E-6,0
ONEWEB-0588,2023-004P,2026-07-18T21:36:41.805504,13.18686725,.00020698,87.9191,329.1611,86.6388,273.4981,0,U,55153,999,17387,-.9251948E-5,.9E-7,0
ONEWEB-0598,2023-004Q,2026-07-18T23:25:27.113664,13.11417154,.00025414,87.8887,14.7381,97.0894,263.0523,0,U,55154,999,17006,-.15407096E-2,-.533E-5,0
ONEWEB-0599,2023-004R,2026-07-18T23:51:23.761728,13.17648827,.00019413,87.9151,359.5365,100.1545,259.9805,0,U,55155,999,17167,-.505354E-3,-.183E-5,0
ONEWEB-0614,2023-004S,2026-07-19T04:47:43.679904,13.11415974,.00017224,87.8883,14.7014,84.8112,275.3212,0,U,55156,999,17003,-.14309023E-2,-.494E-5,0
ONEWEB-0616,2023-004T,2026-07-18T23:02:47.691744,13.17649158,.00019575,87.9150,359.5474,121.8908,238.2415,0,U,55157,999,17188,-.63577251E-3,-.234E-5,0
ONEWEB-0617,2023-004U,2026-07-19T00:50:53.766528,13.11416501,.00018505,87.8889,14.7275,77.9096,282.2239,0,U,55158,999,17003,-.41529436E-3,-.134E-5,0
ONEWEB-0618,2023-004V,2026-07-18T22:21:56.586816,15.13428096,.00128263,86.9116,164.7460,161.4590,198.7120,0,U,55159,999,18706,.34017041E-3,.6118E-4,0
ONEWEB-0619,2023-004W,2026-07-19T03:27:39.664512,13.17649120,.00014334,87.9160,359.4942,92.9491,267.1804,0,U,55160,999,17180,-.56819867E-3,-.208E-5,0
ONEWEB-0620,2023-004X,2026-07-19T04:23:19.218912,13.11415503,.00021133,87.8881,14.7045,89.9962,270.1408,0,U,55161,999,17002,.29415138E-3,.117E-5,0
ONEWEB-0621,2023-004Y,2026-07-18T23:32:46.826592,13.11417430,.00017065,87.8896,14.7361,84.8265,275.3058,0,U,55162,999,16997,-.14468522E-2,-.5E-5,0
ONEWEB-0622,2023-004Z,2026-07-18T23:40:06.434112,13.11418329,.00020578,87.8894,14.7389,70.7821,289.3529,0,U,55163,999,16996,-.10074232E-2,-.344E-5,0
ONEWEB-0623,2023-004AA,2026-07-19T03:20:23.015328,13.17649126,.00015162,87.9150,359.5212,69.1529,290.9765,0,U,55164,999,17179,.11745891E-3,.58E-6,0
ONEWEB-0624,2023-004AB,2026-07-18T21:32:51.991872,13.12929475,.00017531,87.8974,344.2750,92.7837,267.3492,0,U,55165,999,17223,-.98391754E-3,-.344E-5,0
ONEWEB-0625,2023-004AC,2026-07-18T23:27:06.024384,13.17648072,.00017753,87.9150,359.5503,98.1805,261.9528,0,U,55166,999,17176,-.73164153E-4,-.16E-6,0
ONEWEB-0626,2023-004AD,2026-07-19T04:40:35.018400,13.17648980,.00022198,87.9150,359.5063,97.5191,262.6193,0,U,55167,999,17179,-.42120234E-3,-.151E-5,0
ONEWEB-0627,2023-004AE,2026-07-18T22:55:31.503936,13.17648751,.00015787,87.9147,359.5547,80.0653,280.0657,0,U,55168,999,17176,.26148627E-4,.23E-6,0
ONEWEB-0628,2023-004AF,2026-07-19T02:52:18.324192,13.12450993,.00011082,87.8973,344.3055,108.0768,252.0482,0,U,55169,999,17222,-.76686638E-2,-.2746E-4,0
ONEWEB-0629,2023-004AG,2026-07-19T00:09:37.905408,13.17650256,.00015402,87.9151,359.5395,93.2302,266.9006,0,U,55170,999,17177,-.431925E-5,.11E-6,0
ONEWEB-0631,2023-004AH,2026-07-19T02:54:46.370592,13.18686211,.00022668,87.9204,329.0861,91.1015,269.0377,0,U,55171,999,17388,-.13163566E-3,-.39E-6,0
ONEWEB-0709,2023-004AJ,2026-07-19T05:58:33.353760,13.11416417,.00027137,87.8884,14.6937,96.3503,263.7934,0,U,55172,999,17007,.14544744E-2,.528E-5,0
ONEWEB-0710,2023-004AK,2026-07-18T22:40:56.511264,13.17649168,.00018622,87.9147,359.5477,88.3779,271.7566,0,U,55173,999,17176,.22986861E-3,.102E-5,0
ONEWEB-0711,2023-004AL,2026-07-19T05:17:02.140224,13.11418465,.00017493,87.8886,14.6879,68.3071,291.8243,0,U,55174,999,17003,-.8256434E-3,-.28E-5,0
ONEWEB-0713,2023-004AM,2026-07-19T00:14:18.599136,13.11417200,.00018094,87.8888,14.7319,77.5371,282.5960,0,U,55175,999,16999,.14649071E-2,.532E-5,0
ONEWEB-0715,2023-004AN,2026-07-19T00:06:59.040864,13.11418058,.00025123,87.8887,14.7331,88.5633,271.5783,0,U,55176,999,17003,.10636191E-2,.39E-5,0
ONEWEB-0716,2023-004AP,2026-07-19T03:59:16.047744,13.17647907,.00018284,87.9147,359.5067,100.8977,259.2361,0,U,55177,999,17179,-.22300407E-3,-.74E-6,0
ONEWEB-0717,2023-004AQ,2026-07-18T23:56:15.747936,13.17649102,.00019656,87.9162,359.5308,76.7242,283.4108,0,U,55178,999,17182,-.34371896E-3,-.121E-5,0
ONEWEB-0719,2023-004AR,2026-07-19T03:49:31.861920,13.17648638,.00017094,87.9159,359.4786,97.6332,262.4994,0,U,55179,999,17179,-.60617804E-3,-.222E-5,0
ONEWEB-0530,2023-029A,2026-07-19T05:03:33.147648,13.20771488,.00017444,87.9174,268.0850,88.0051,272.1282,0,U,55796,999,16537,-.32729533E-3,-.12E-5,0
